CCSDS_OMM_VERS = 2.0
CREATION_DATE  = 
ORIGINATOR     = 

OBJECT_NAME    = SL-16 R/B
OBJECT_ID      = 1998-043G
CENTER_NAME    = EARTH
REF_FRAME      = TEME
TIME_SYSTEM    = UTC
MEAN_ELEMENT_THEORY = SGP/SGP4

EPOCH          = 2026-01-31T19:48:46.826208
MEAN_MOTION    = 14.26040366
ECCENTRICITY   = .00107537
INCLINATION    = 98.8193
RA_OF_ASC_NODE = 344.9422
ARG_OF_PERICENTER = 118.4176
MEAN_ANOMALY   = 241.8089

EPHEMERIS_TYPE = 0
CLASSIFICATION_TYPE = U
NORAD_CAT_ID   = 25400
ELEMENT_SET_NO = 999
REV_AT_EPOCH   = 43373
BSTAR          = .47964872E-4
MEAN_MOTION_DOT = .69E-6
MEAN_MOTION_DDOT = 0

CCSDS_OMM_VERS = 2.0
CREATION_DATE  = 
ORIGINATOR     = 

OBJECT_NAME    = SL-16 R/B
OBJECT_ID      = 1998-045B
CENTER_NAME    = EARTH
REF_FRAME      = TEME
TIME_SYSTEM    = UTC
MEAN_ELEMENT_THEORY = SGP/SGP4

EPOCH          = 2026-01-31T21:56:58.123104
MEAN_MOTION    = 14.16186538
ECCENTRICITY   = .0005092
INCLINATION    = 71.0096
RA_OF_ASC_NODE = 258.9119
ARG_OF_PERICENTER = 77.3606
MEAN_ANOMALY   = 282.8086

EPHEMERIS_TYPE = 0
CLASSIFICATION_TYPE = U
NORAD_CAT_ID   = 25407
ELEMENT_SET_NO = 999
REV_AT_EPOCH   = 42189
BSTAR          = -.71439514E-4
MEAN_MOTION_DOT = -.189E-5
MEAN_MOTION_DDOT = 0

CCSDS_OMM_VERS = 2.0
CREATION_DATE  = 
ORIGINATOR     = 

OBJECT_NAME    = ISS (ZARYA)
OBJECT_ID      = 1998-067A
CENTER_NAME    = EARTH
REF_FRAME      = TEME
TIME_SYSTEM    = UTC
MEAN_ELEMENT_THEORY = SGP/SGP4

EPOCH          = 2026-01-31T20:31:22.831968
MEAN_MOTION    = 15.48310634
ECCENTRICITY   = .00111079
INCLINATION    = 51.6318
RA_OF_ASC_NODE = 254.4422
ARG_OF_PERICENTER = 50.9406
MEAN_ANOMALY   = 309.2569

EPHEMERIS_TYPE = 0
CLASSIFICATION_TYPE = U
NORAD_CAT_ID   = 25544
ELEMENT_SET_NO = 999
REV_AT_EPOCH   = 55062
BSTAR          = .13028103E-3
MEAN_MOTION_DOT = .6574E-4
MEAN_MOTION_DDOT = 0

CCSDS_OMM_VERS = 2.0
CREATION_DATE  = 
ORIGINATOR     = 

OBJECT_NAME    = CZ-4B R/B
OBJECT_ID      = 1999-025C
CENTER_NAME    = EARTH
REF_FRAME      = TEME
TIME_SYSTEM    = UTC
MEAN_ELEMENT_THEORY = SGP/SGP4

EPOCH          = 2026-01-31T20:39:54.080640
MEAN_MOTION    = 14.18257509
ECCENTRICITY   = .00381826
INCLINATION    = 98.6697
RA_OF_ASC_NODE = 77.0029
ARG_OF_PERICENTER = 90.9724
MEAN_ANOMALY   = 82.2439

EPHEMERIS_TYPE = 0
CLASSIFICATION_TYPE = U
NORAD_CAT_ID   = 25732
ELEMENT_SET_NO = 999
REV_AT_EPOCH   = 38294
BSTAR          = .52272287E-4
MEAN_MOTION_DOT = .66E-6
MEAN_MOTION_DDOT = 0

CCSDS_OMM_VERS = 2.0
CREATION_DATE  = 
ORIGINATOR     = 

OBJECT_NAME    = OKEAN-O
OBJECT_ID      = 1999-039A
CENTER_NAME    = EARTH
REF_FRAME      = TEME
TIME_SYSTEM    = UTC
MEAN_ELEMENT_THEORY = SGP/SGP4

EPOCH          = 2026-01-31T16:15:45.535968
MEAN_MOTION    = 14.80271001
ECCENTRICITY   = .00019014
INCLINATION    = 97.9522
RA_OF_ASC_NODE = 91.9305
ARG_OF_PERICENTER = 92.9490
MEAN_ANOMALY   = 267.1940

EPHEMERIS_TYPE = 0
CLASSIFICATION_TYPE = U
NORAD_CAT_ID   = 25860
ELEMENT_SET_NO = 999
REV_AT_EPOCH   = 42891
BSTAR          = .12192753E-3
MEAN_MOTION_DOT = .876E-5
MEAN_MOTION_DDOT = 0

CCSDS_OMM_VERS = 2.0
CREATION_DATE  = 
ORIGINATOR     = 

OBJECT_NAME    = SL-16 R/B
OBJECT_ID      = 1999-039B
CENTER_NAME    = EARTH
REF_FRAME      = TEME
TIME_SYSTEM    = UTC
MEAN_ELEMENT_THEORY = SGP/SGP4

EPOCH          = 2026-01-31T18:14:26.406240
MEAN_MOTION    = 14.81676166
ECCENTRICITY   = .00152562
INCLINATION    = 98.0044
RA_OF_ASC_NODE = 90.8965
ARG_OF_PERICENTER = 22.3741
MEAN_ANOMALY   = 337.8134

EPHEMERIS_TYPE = 0
CLASSIFICATION_TYPE = U
NORAD_CAT_ID   = 25861
ELEMENT_SET_NO = 999
REV_AT_EPOCH   = 43139
BSTAR          = .96889966E-4
MEAN_MOTION_DOT = .71E-5
MEAN_MOTION_DDOT = 0

CCSDS_OMM_VERS = 2.0
CREATION_DATE  = 
ORIGINATOR     = 

OBJECT_NAME    = DELTA 2 R/B
OBJECT_ID      = 1999-041E
CENTER_NAME    = EARTH
REF_FRAME      = TEME
TIME_SYSTEM    = UTC
MEAN_ELEMENT_THEORY = SGP/SGP4

EPOCH          = 2026-01-31T20:11:34.674720
MEAN_MOTION    = 14.11677362
ECCENTRICITY   = .05026314
INCLINATION    = 51.7643
RA_OF_ASC_NODE = 88.4252
ARG_OF_PERICENTER = 239.5542
MEAN_ANOMALY   = 115.4827

EPHEMERIS_TYPE = 0
CLASSIFICATION_TYPE = U
NORAD_CAT_ID   = 25876
ELEMENT_SET_NO = 999
REV_AT_EPOCH   = 35782
BSTAR          = .38515065E-3
MEAN_MOTION_DOT = .2162E-4
MEAN_MOTION_DDOT = 0

CCSDS_OMM_VERS = 2.0
CREATION_DATE  = 
ORIGINATOR     = 

OBJECT_NAME    = HELIOS 1B
OBJECT_ID      = 1999-064A
CENTER_NAME    = EARTH
REF_FRAME      = TEME
TIME_SYSTEM    = UTC
MEAN_ELEMENT_THEORY = SGP/SGP4

EPOCH          = 2026-01-31T17:16:02.703072
MEAN_MOTION    = 14.87537561
ECCENTRICITY   = .00016792
INCLINATION    = 98.1738
RA_OF_ASC_NODE = 292.8700
ARG_OF_PERICENTER = 124.8696
MEAN_ANOMALY   = 235.2677

EPHEMERIS_TYPE = 0
CLASSIFICATION_TYPE = U
NORAD_CAT_ID   = 25977
ELEMENT_SET_NO = 999
REV_AT_EPOCH   = 67976
BSTAR          = .23932665E-3
MEAN_MOTION_DOT = .2113E-4
MEAN_MOTION_DDOT = 0

CCSDS_OMM_VERS = 2.0
CREATION_DATE  = 
ORIGINATOR     = 

OBJECT_NAME    = TERRA
OBJECT_ID      = 1999-068A
CENTER_NAME    = EARTH
REF_FRAME      = TEME
TIME_SYSTEM    = UTC
MEAN_ELEMENT_THEORY = SGP/SGP4

EPOCH          = 2026-01-31T22:40:55.801056
MEAN_MOTION    = 14.60972134
ECCENTRICITY   = .00011752
INCLINATION    = 97.9669
RA_OF_ASC_NODE = 86.7691
ARG_OF_PERICENTER = 324.4131
MEAN_ANOMALY   = 136.8012

EPHEMERIS_TYPE = 0
CLASSIFICATION_TYPE = U
NORAD_CAT_ID   = 25994
ELEMENT_SET_NO = 999
REV_AT_EPOCH   = 38971
BSTAR          = .1151994E-3
MEAN_MOTION_DOT = .52E-5
MEAN_MOTION_DDOT = 0

CCSDS_OMM_VERS = 2.0
CREATION_DATE  = 
ORIGINATOR     = 

OBJECT_NAME    = SL-16 R/B
OBJECT_ID      = 2000-006B
CENTER_NAME    = EARTH
REF_FRAME      = TEME
TIME_SYSTEM    = UTC
MEAN_ELEMENT_THEORY = SGP/SGP4

EPOCH          = 2026-01-31T20:23:39.041952
MEAN_MOTION    = 14.15818623
ECCENTRICITY   = .00185207
INCLINATION    = 71.0024
RA_OF_ASC_NODE = 175.2961
ARG_OF_PERICENTER = 241.3421
MEAN_ANOMALY   = 118.5840

EPHEMERIS_TYPE = 0
CLASSIFICATION_TYPE = U
NORAD_CAT_ID   = 26070
ELEMENT_SET_NO = 999
REV_AT_EPOCH   = 34334
BSTAR          = .14243584E-3
MEAN_MOTION_DOT = .233E-5
MEAN_MOTION_DDOT = 0

CCSDS_OMM_VERS = 2.0
CREATION_DATE  = 
ORIGINATOR     = 

OBJECT_NAME    = TITAN 4B R/B
OBJECT_ID      = 2000-047B
CENTER_NAME    = EARTH
REF_FRAME      = TEME
TIME_SYSTEM    = UTC
MEAN_ELEMENT_THEORY = SGP/SGP4

EPOCH          = 2026-01-31T22:03:49.075200
MEAN_MOTION    = 15.09247257
ECCENTRICITY   = .00366553
INCLINATION    = 67.9898
RA_OF_ASC_NODE = 143.8813
ARG_OF_PERICENTER = 81.2601
MEAN_ANOMALY   = 279.2697

EPHEMERIS_TYPE = 0
CLASSIFICATION_TYPE = U
NORAD_CAT_ID   = 26474
ELEMENT_SET_NO = 999
REV_AT_EPOCH   = 38736
BSTAR          = .22626784E-3
MEAN_MOTION_DOT = .3531E-4
MEAN_MOTION_DDOT = 0

CCSDS_OMM_VERS = 2.0
CREATION_DATE  = 
ORIGINATOR     = 

OBJECT_NAME    = ENVISAT
OBJECT_ID      = 2002-009A
CENTER_NAME    = EARTH
REF_FRAME      = TEME
TIME_SYSTEM    = UTC
MEAN_ELEMENT_THEORY = SGP/SGP4

EPOCH          = 2026-01-31T21:22:16.748832
MEAN_MOTION    = 14.39022243
ECCENTRICITY   = .00012485
INCLINATION    = 98.3668
RA_OF_ASC_NODE = 346.3786
ARG_OF_PERICENTER = 92.0103
MEAN_ANOMALY   = 283.0845

EPHEMERIS_TYPE = 0
CLASSIFICATION_TYPE = U
NORAD_CAT_ID   = 27386
ELEMENT_SET_NO = 999
REV_AT_EPOCH   = 25388
BSTAR          = .60568399E-4
MEAN_MOTION_DOT = .144E-5
MEAN_MOTION_DDOT = 0

