SL-16 R/B               
1 25400U 98043G   26031.82554197  .00000069  00000+0  47965-4 0  9997
2 25400  98.8193 344.9422 0010753 118.4176 241.8089 14.26040366433737
SL-16 R/B               
1 25407U 98045B   26031.91456161 -.00000189  00000+0 -71440-4 0  9998
2 25407  71.0096 258.9119 0005092  77.3606 282.8086 14.16186538421894
ISS (ZARYA)             
1 25544U 98067A   26031.85512537  .00006574  00000+0  13028-3 0  9996
2 25544  51.6318 254.4422 0011107  50.9406 309.2569 15.48310634550620
CZ-4B R/B               
1 25732U 99025C   26031.86104260  .00000066  00000+0  52272-4 0  9996
2 25732  98.6697  77.0029 0038182  90.9724  82.2439 14.18257509382940
OKEAN-O                 
1 25860U 99039A   26031.67761037  .00000876  00000+0  12193-3 0  9999
2 25860  97.9522  91.9305 0001901  92.9490 267.1940 14.80271001428915
SL-16 R/B               
1 25861U 99039B   26031.76002785  .00000710  00000+0  96890-4 0  9992
2 25861  98.0044  90.8965 0015256  22.3741 337.8134 14.81676166431399
DELTA 2 R/B             
1 25876U 99041E   26031.84137355  .00002162  00000+0  38515-3 0  9994
2 25876  51.7643  88.4252 0502631 239.5542 115.4827 14.11677362357823
HELIOS 1B               
1 25977U 99064A   26031.71947573  .00002113  00000+0  23933-3 0  9992
2 25977  98.1738 292.8700 0001679 124.8696 235.2677 14.87537561679769
TERRA                   
1 25994U 99068A   26031.94509029  .00000520  00000+0  11520-3 0  9999
2 25994  97.9669  86.7691 0001175 324.4131 136.8012 14.60972134389712
SL-16 R/B               
1 26070U 00006B   26031.84975743  .00000233  00000+0  14244-3 0  9995
2 26070  71.0024 175.2961 0018520 241.3421 118.5840 14.15818623343348
TITAN 4B R/B            
1 26474U 00047B   26031.91931800  .00003531  00000+0  22627-3 0  9990
2 26474  67.9898 143.8813 0036655  81.2601 279.2697 15.09247257387364
ENVISAT                 
1 27386U 02009A   26031.89047163  .00000144  00000+0  60568-4 0  9994
2 27386  98.3668 346.3786 0001248  92.0103 283.0845 14.39022243253881
